[{"OBJECT_NAME":"IRIDIUM 169","OBJECT_ID":"2019-002E","EPOCH":"2026-03-09T22:14:17.748384","MEAN_MOTION":14.38612437,"ECCENTRICITY":0.00014131,"INCLINATION":86.4172,"RA_OF_ASC_NODE":66.6873,"ARG_OF_PERICENTER":82.9186,"MEAN_ANOMALY":277.2173,"EPHEMERIS_TYPE":0,"CLASSIFICATION_TYPE":"U","NORAD_CAT_ID":43926,"ELEMENT_SET_NO":999,"REV_AT_EPOCH":37595,"BSTAR":6.3248636e-5,"MEAN_MOTION_DOT":2.13e-6,"MEAN_MOTION_DDOT":0},{"OBJECT_NAME":"FENGYUN 1C DEB","OBJECT_ID":"1999-025KC","EPOCH":"2026-03-09T16:50:05.739648","MEAN_MOTION":14.34689605,"ECCENTRICITY":0.00734464,"INCLINATION":100.1383,"RA_OF_ASC_NODE":126.7973,"ARG_OF_PERICENTER":25.5607,"MEAN_ANOMALY":334.9175,"EPHEMERIS_TYPE":0,"CLASSIFICATION_TYPE":"U","NORAD_CAT_ID":29954,"ELEMENT_SET_NO":999,"REV_AT_EPOCH":99434,"BSTAR":0.0008006353,"MEAN_MOTION_DOT":2.279e-5,"MEAN_MOTION_DDOT":0}]
